{
  "type": "FeatureCollection",
  "features": [
    {
      "type": "Feature",
      "properties": {
        "NAME": "India",
        "ISO_A3": "IND"
      },
      "geometry": {
        "type": "MultiPolygon",
        "coordinates": [
          [
            [
              [77.837451, 35.494009],
              [78.912269, 34.321936],
              [78.811086, 34.034118],
              [79.208251, 33.506198],
              [79.176129, 33.933369],
              [80.088425, 34.006173],
              [80.476721, 33.528548],
              [81.111256, 33.566198],
              [82.327513, 33.115268],
              [83.337115, 33.463731],
              [84.234451, 32.839894],
              [85.822745, 32.642774],
              [86.954517, 32.394857],
              [88.120441, 31.876542],
              [88.043133, 31.598906],
              [88.174138, 30.810405],
              [88.043133, 30.414617],
              [87.227629, 30.397898],
              [86.024393, 30.630985],
              [85.251779, 30.726198],
              [84.675951, 29.234901],
              [83.304249, 29.364506],
              [82.328796, 29.094302],
              [81.057203, 29.416095],
              [80.088425, 29.79447],
              [79.12821, 30.081414],
              [78.458251, 30.032181],
              [77.837451, 30.616805],
              [77.312699, 31.05179],
              [76.135464, 31.321035],
              [75.746613, 31.173735],
              [75.896141, 31.848621],
              [76.192261, 32.540831],
              [76.717766, 33.08],
              [77.821251, 33.139239],
              [77.837451, 35.494009]
            ]
          ],
          [
            [
              [68.176645, 23.691965],
              [68.842199, 24.359134],
              [71.043701, 24.35689],
              [70.844699, 25.215102],
              [70.282873, 25.722225],
              [70.168934, 26.491872],
              [69.514395, 26.940966],
              [70.616496, 27.989196],
              [71.777666, 27.91318],
              [72.823752, 28.961592],
              [73.450638, 29.976329],
              [74.421934, 30.979815],
              [74.405929, 31.692639],
              [75.258642, 32.271105],
              [74.451679, 32.7649],
              [73.534199, 33.441473],
              [73.749441, 34.317079],
              [74.240005, 34.076599],
              [75.757441, 34.23123],
              [76.871722, 34.409063],
              [77.837451, 34.144689],
              [78.912269, 34.369209],
              [79.208251, 34.994395],
              [80.088425, 34.506173],
              [80.476721, 34.981668],
              [81.111256, 34.62822],
              [81.525259, 32.422717],
              [82.327513, 32.115268],
              [83.337115, 31.463731],
              [84.234451, 30.839894],
              [85.251779, 30.726198],
              [86.954517, 30.394857],
              [88.120441, 29.876542],
              [89.472618, 28.95051],
              [90.645015, 28.800762],
              [91.696763, 28.588527],
              [92.503119, 28.519865],
              [93.413348, 29.044406],
              [94.56599, 29.264589],
              [95.404802, 28.217804],
              [96.117679, 27.564119],
              [97.327114, 27.878994],
              [97.402561, 29.882536],
              [97.051989, 30.542327],
              [97.133999, 30.28639],
              [96.419366, 30.642774],
              [95.124768, 31.031717],
              [94.17752, 31.031717],
              [93.325188, 30.640064],
              [92.36807, 30.218327],
              [91.799596, 29.925479],
              [90.872211, 30.07814],
              [89.744658, 28.719403],
              [88.563049, 26.866079],
              [87.19275, 24.053],
              [86.97557, 23.49556],
              [87.033169, 22.743308],
              [86.499351, 22.151638],
              [85.060266, 21.478579],
              [83.941006, 20.302009],
              [83.189049, 19.671221],
              [82.192993, 19.016636],
              [82.191242, 18.556664],
              [81.692719, 18.310219],
              [80.791999, 17.951972],
              [80.324896, 17.899185],
              [80.025069, 17.136415],
              [80.233274, 15.835771],
              [80.286294, 15.006261],
              [79.862547, 14.056215],
              [79.857999, 12.357275],
              [79.340512, 12.308854],
              [78.885345, 11.546136],
              [79.18972, 11.216544],
              [78.277941, 10.933047],
              [77.941165, 10.252959],
              [77.539898, 9.965535],
              [76.592979, 10.899276],
              [76.13077, 12.29963],
              [75.746613, 13.308524],
              [75.396101, 13.781245],
              [74.864441, 14.741936],
              [74.616601, 15.992583],
              [74.443251, 17.207447],
              [73.534199, 17.990652],
              [73.119909, 19.92785],
              [72.820911, 21.208234],
              [72.82482, 22.419503],
              [72.630533, 23.356009],
              [71.175273, 22.757441],
              [70.470459, 22.877331],
              [69.16413, 24.089298],
              [69.644928, 24.450775],
              [69.349597, 24.84318],
              [68.176645, 23.691965]
            ]
          ]
        ]
      }
    }
  ]
}
